{"type": "FeatureCollection", "features": [ {"type": "Feature", "properties": {"norad_id": 34303, "name": "COSMOS 2251 DEB", "group": "cosmos-2251-debris", "lat": -1.877230338575786, "lon": -90.83332116675084, "alt_km": 647.9957058009004, "timestamp": "2025-12-22T09:53:37.794081+00:00", "meta": {"OBJECT_NAME": "COSMOS 2251 DEB", "OBJECT_ID": "1993-036MZ", "EPOCH": "2025-12-22T03:36:58.054752", "MEAN_MOTION": 14.54568849, "ECCENTRICITY": 0.0135473, "INCLINATION": 74.0058, "RA_OF_ASC_NODE": 270.201, "ARG_OF_PERICENTER": 46.19, "MEAN_ANOMALY": 23.9645, "EPHEMERIS_TYPE": 0, "CLASSIFICATION_TYPE": "U", "NORAD_CAT_ID": 34303, "ELEMENT_SET_NO": 999, "REV_AT_EPOCH": 88099, "BSTAR": 0.0014857, "MEAN_MOTION_DOT": 7.144e-05, "MEAN_MOTION_DDOT": 0}, "tle": {"line1": "1 34303U 93036MZ  25356.15067193  .00007144  00000+0  14857-2 0  9999", "line2": "2 34303  74.0058 270.2010 0135473  46.1900  23.9645 14.54568849880991"}}, "geometry": {"type": "Point", "coordinates": [-90.83332116675084, -1.877230338575786]}}, {"type": "Feature", "properties": {"norad_id": 34304, "name": "COSMOS 2251 DEB", "group": "cosmos-2251-debris", "lat": -67.00923665873056, "lon": -32.74155499626425, "alt_km": 682.206444861622, "timestamp": "2025-12-22T09:53:37.794090+00:00", "meta": {"OBJECT_NAME": "COSMOS 2251 DEB", "OBJECT_ID": "1993-036NA", "EPOCH": "2025-12-21T18:16:44.419008", "MEAN_MOTION": 14.37938294, "ECCENTRICITY": 0.0129023, "INCLINATION": 74.0137, "RA_OF_ASC_NODE": 105.9527, "ARG_OF_PERICENTER": 241.9106, "MEAN_ANOMALY": 244.3719, "EPHEMERIS_TYPE": 0, "CLASSIFICATION_TYPE": "U", "NORAD_CAT_ID": 34304, "ELEMENT_SET_NO": 999, "REV_AT_EPOCH": 87426, "BSTAR": 0.0012656, "MEAN_MOTION_DOT": 4.184e-05, "MEAN_MOTION_DDOT": 0}, "tle": {"line1": "1 34304U 93036NA  25355.76162522  .00004184  00000+0  12656-2 0  9994", "line2": "2 34304  74.0137 105.9527 0129023 241.9106 244.3719 14.37938294874264"}}, "geometry": {"type": "Point", "coordinates": [-32.74155499626425, -67.00923665873056]}}, {"type": "Feature", "properties": {"norad_id": 34307, "name": "COSMOS 2251 DEB", "group": "cosmos-2251-debris", "lat": 61.770667406547204, "lon": -30.22743937009786, "alt_km": 895.7343353495207, "timestamp": "2025-12-22T09:53:37.794100+00:00", "meta": {"OBJECT_NAME": "COSMOS 2251 DEB", "OBJECT_ID": "1993-036ND", "EPOCH": "2025-12-21T21:26:36.619296", "MEAN_MOTION": 13.5433472, "ECCENTRICITY": 0.0391852, "INCLINATION": 74.0538, "RA_OF_ASC_NODE": 298.4269, "ARG_OF_PERICENTER": 127.3483, "MEAN_ANOMALY": 294.5809, "EPHEMERIS_TYPE": 0, "CLASSIFICATION_TYPE": "U", "NORAD_CAT_ID": 34307, "ELEMENT_SET_NO": 999, "REV_AT_EPOCH": 82986, "BSTAR": 0.00066122, "MEAN_MOTION_DOT": 7.17e-06, "MEAN_MOTION_DDOT": 0}, "tle": {"line1": "1 34307U 93036ND  25355.89347939  .00000717  00000+0  66122-3 0  9994", "line2": "2 34307  74.0538 298.4269 0391852 127.3483 294.5809 13.54334720829864"}}, "geometry": {"type": "Point", "coordinates": [-30.22743937009786, 61.770667406547204]}}, {"type": "Feature", "properties": {"norad_id": 34313, "name": "COSMOS 2251 DEB", "group": "cosmos-2251-debris", "lat": -36.59292394366902, "lon": 117.4671689643027, "alt_km": 517.3377534158399, "timestamp": "2025-12-22T09:53:37.794110+00:00", "meta": {"OBJECT_NAME": "COSMOS 2251 DEB", "OBJECT_ID": "1993-036NK", "EPOCH": "2025-12-22T04:12:04.163616", "MEAN_MOTION": 15.20627547, "ECCENTRICITY": 0.0012232, "INCLINATION": 73.971, "RA_OF_ASC_NODE": 285.6416, "ARG_OF_PERICENTER": 65.683, "MEAN_ANOMALY": 294.5643, "EPHEMERIS_TYPE": 0, "CLASSIFICATION_TYPE": "U", "NORAD_CAT_ID": 34313, "ELEMENT_SET_NO": 999, "REV_AT_EPOCH": 89208, "BSTAR": 0.0046506, "MEAN_MOTION_DOT": 0.00103673, "MEAN_MOTION_DDOT": 0}, "tle": {"line1": "1 34313U 93036NK  25356.17504819  .00103673  00000+0  46506-2 0  9993", "line2": "2 34313  73.9710 285.6416 0012232  65.6830 294.5643 15.20627547892082"}}, "geometry": {"type": "Point", "coordinates": [117.4671689643027, -36.59292394366902]}}, {"type": "Feature", "properties": {"norad_id": 34314, "name": "COSMOS 2251 DEB", "group": "cosmos-2251-debris", "lat": -73.56880434062874, "lon": -145.42185223711735, "alt_km": 878.4784859319361, "timestamp": "2025-12-22T09:53:37.794120+00:00", "meta": {"OBJECT_NAME": "COSMOS 2251 DEB", "OBJECT_ID": "1993-036NL", "EPOCH": "2025-12-22T01:54:02.530944", "MEAN_MOTION": 14.17445885, "ECCENTRICITY": 0.0103332, "INCLINATION": 74.0061, "RA_OF_ASC_NODE": 291.7164, "ARG_OF_PERICENTER": 35.1837, "MEAN_ANOMALY": 340.816, "EPHEMERIS_TYPE": 0, "CLASSIFICATION_TYPE": "U", "NORAD_CAT_ID": 34314, "ELEMENT_SET_NO": 999, "REV_AT_EPOCH": 86790, "BSTAR": 0.00064324, "MEAN_MOTION_DOT": 1.349e-05, "MEAN_MOTION_DDOT": 0}, "tle": {"line1": "1 34314U 93036NL  25356.07919596  .00001349  00000+0  64324-3 0  9991", "line2": "2 34314  74.0061 291.7164 0103332  35.1837 340.8160 14.17445885867903"}}, "geometry": {"type": "Point", "coordinates": [-145.42185223711735, -73.56880434062874]}}, {"type": "Feature", "properties": {"norad_id": 34316, "name": "COSMOS 2251 DEB", "group": "cosmos-2251-debris", "lat": 0.5584523914565794, "lon": 137.3486748370443, "alt_km": 598.8340384908233, "timestamp": "2025-12-22T09:53:37.794129+00:00", "meta": {"OBJECT_NAME": "COSMOS 2251 DEB", "OBJECT_ID": "1993-036NN", "EPOCH": "2025-12-22T04:15:57.737376", "MEAN_MOTION": 14.92099626, "ECCENTRICITY": 0.0008981, "INCLINATION": 74.0657, "RA_OF_ASC_NODE": 317.9779, "ARG_OF_PERICENTER": 38.8154, "MEAN_ANOMALY": 321.3672, "EPHEMERIS_TYPE": 0, "CLASSIFICATION_TYPE": "U", "NORAD_CAT_ID": 34316, "ELEMENT_SET_NO": 999, "REV_AT_EPOCH": 89350, "BSTAR": 0.0018668, "MEAN_MOTION_DOT": 0.00019004, "MEAN_MOTION_DDOT": 0}, "tle": {"line1": "1 34316U 93036NN  25356.17775159  .00019004  00000+0  18668-2 0  9995", "line2": "2 34316  74.0657 317.9779 0008981  38.8154 321.3672 14.92099626893503"}}, "geometry": {"type": "Point", "coordinates": [137.3486748370443, 0.5584523914565794]}}, {"type": "Feature", "properties": {"norad_id": 34317, "name": "COSMOS 2251 DEB", "group": "cosmos-2251-debris", "lat": -11.627168783081116, "lon": -156.76383801148845, "alt_km": 1269.2500501677214, "timestamp": "2025-12-22T09:53:37.794139+00:00", "meta": {"OBJECT_NAME": "COSMOS 2251 DEB", "OBJECT_ID": "1993-036NP", "EPOCH": "2025-12-22T02:03:47.659392", "MEAN_MOTION": 13.65132916, "ECCENTRICITY": 0.0336881, "INCLINATION": 73.9243, "RA_OF_ASC_NODE": 20.3716, "ARG_OF_PERICENTER": 7.8243, "MEAN_ANOMALY": 21.6321, "EPHEMERIS_TYPE": 0, "CLASSIFICATION_TYPE": "U", "NORAD_CAT_ID": 34317, "ELEMENT_SET_NO": 999, "REV_AT_EPOCH": 83747, "BSTAR": 0.00055704, "MEAN_MOTION_DOT": 6.43e-06, "MEAN_MOTION_DDOT": 0}, "tle": {"line1": "1 34317U 93036NP  25356.08596828  .00000643  00000+0  55704-3 0  9992", "line2": "2 34317  73.9243  20.3716 0336881   7.8243  21.6321 13.65132916837471"}}, "geometry": {"type": "Point", "coordinates": [-156.76383801148845, -11.627168783081116]}}, {"type": "Feature", "properties": {"norad_id": 34321, "name": "COSMOS 2251 DEB", "group": "cosmos-2251-debris", "lat": -46.515946105491615, "lon": 120.61144596047026, "alt_km": 723.5790050871847, "timestamp": "2025-12-22T09:53:37.794149+00:00", "meta": {"OBJECT_NAME": "COSMOS 2251 DEB", "OBJECT_ID": "1993-036NT", "EPOCH": "2025-12-22T04:18:42.693120", "MEAN_MOTION": 14.50094167, "ECCENTRICITY": 0.0016011, "INCLINATION": 74.0274, "RA_OF_ASC_NODE": 138.6253, "ARG_OF_PERICENTER": 267.5422, "MEAN_ANOMALY": 269.7458, "EPHEMERIS_TYPE": 0, "CLASSIFICATION_TYPE": "U", "NORAD_CAT_ID": 34321, "ELEMENT_SET_NO": 999, "REV_AT_EPOCH": 88623, "BSTAR": 0.00051895, "MEAN_MOTION_DOT": 1.99e-05, "MEAN_MOTION_DDOT": 0}, "tle": {"line1": "1 34321U 93036NT  25356.17966080  .00001990  00000+0  51895-3 0  9991", "line2": "2 34321  74.0274 138.6253 0016011 267.5422 269.7458 14.50094167886239"}}, "geometry": {"type": "Point", "coordinates": [120.61144596047026, -46.515946105491615]}}, {"type": "Feature", "properties": {"norad_id": 34323, "name": "COSMOS 2251 DEB", "group": "cosmos-2251-debris", "lat": 71.9265950520132, "lon": -137.74710712192737, "alt_km": 611.1960824425078, "timestamp": "2025-12-22T09:53:37.794159+00:00", "meta": {"OBJECT_NAME": "COSMOS 2251 DEB", "OBJECT_ID": "1993-036NV", "EPOCH": "2025-12-21T17:42:38.993184", "MEAN_MOTION": 14.74682656, "ECCENTRICITY": 0.005786, "INCLINATION": 73.954, "RA_OF_ASC_NODE": 105.4525, "ARG_OF_PERICENTER": 147.3081, "MEAN_ANOMALY": 333.3151, "EPHEMERIS_TYPE": 0, "CLASSIFICATION_TYPE": "U", "NORAD_CAT_ID": 34323, "ELEMENT_SET_NO": 999, "REV_AT_EPOCH": 88572, "BSTAR": 0.0018915, "MEAN_MOTION_DOT": 0.00012969, "MEAN_MOTION_DDOT": 0}, "tle": {"line1": "1 34323U 93036NV  25355.73795131  .00012969  00000+0  18915-2 0  9994", "line2": "2 34323  73.9540 105.4525 0057860 147.3081 333.3151 14.74682656885725"}}, "geometry": {"type": "Point", "coordinates": [-137.74710712192737, 71.9265950520132]}}, {"type": "Feature", "properties": {"norad_id": 34325, "name": "COSMOS 2251 DEB", "group": "cosmos-2251-debris", "lat": 33.40360833020893, "lon": -173.23417897216, "alt_km": 1002.4878742581777, "timestamp": "2025-12-22T09:53:37.794168+00:00", "meta": {"OBJECT_NAME": "COSMOS 2251 DEB", "OBJECT_ID": "1993-036NX", "EPOCH": "2025-12-21T22:06:12.157056", "MEAN_MOTION": 14.04527675, "ECCENTRICITY": 0.0191596, "INCLINATION": 73.8701, "RA_OF_ASC_NODE": 176.6295, "ARG_OF_PERICENTER": 192.2465, "MEAN_ANOMALY": 240.658, "EPHEMERIS_TYPE": 0, "CLASSIFICATION_TYPE": "U", "NORAD_CAT_ID": 34325, "ELEMENT_SET_NO": 999, "REV_AT_EPOCH": 85644, "BSTAR": 0.0018611, "MEAN_MOTION_DOT": 3.475e-05, "MEAN_MOTION_DDOT": 0}, "tle": {"line1": "1 34325U 93036NX  25355.92097404  .00003475  00000+0  18611-2 0  9990", "line2": "2 34325  73.8701 176.6295 0191596 192.2465 240.6580 14.04527675856444"}}, "geometry": {"type": "Point", "coordinates": [-173.23417897216, 33.40360833020893]}}]}